ONEWEB-0283             
1 49001U 21060AL  24337.46781623  .00000161  00000+0  38832-3 0  9993
2 49001  87.9079 340.7037 0001840  82.0085 278.1255 13.16592283165705
ONEWEB-0284             
1 49002U 21060AM  24337.76545805  .00000117  00000+0  27297-3 0  9991
2 49002  87.9075 340.6182 0001601  94.8979 265.2335 13.16594504165726
ONEWEB-0285             
1 49075U 21075A   24337.87854512  .00000473  00000+0  12786-2 0  9998
2 49075  87.8875 102.4368 0001477 102.6614 257.4680 13.12443919161583
ONEWEB-0286             
1 49076U 21075B   24337.62129535 -.00000290  00000+0 -84140-3 0  9995
2 49076  87.8873 102.4859 0001807 107.8291 252.3034 13.12442393161887
ONEWEB-0287             
1 49077U 21075C   24337.84649004  .00000125  00000+0  28913-3 0  9999
2 49077  87.9084 117.6893 0001544 106.4513 253.6788 13.17649608159700
ONEWEB-0288             
1 49078U 21075D   24337.60748914 -.00000340  00000+0 -98115-3 0  9996
2 49078  87.8868 102.4908 0001517 107.2797 252.8498 13.12440231161520
ONEWEB-0289             
1 49079U 21075E   24338.10297879  .00000064  00000+0  13095-3 0  9997
2 49079  87.9087 117.6677 0001510  95.9194 264.2110 13.17646765161289
ONEWEB-0290             
1 49080U 21075F   24338.08609742  .00000025  00000+0  31433-4 0  9996
2 49080  87.9089 117.6297 0000769  93.4835 266.6385 13.17649162160701
